ONEWEB-0372             
1 49298U 21090V   24261.44069675  .00000149  00000+0  33435-3 0  9994
2 49298  87.9239  41.2984 0001734 100.6250 259.5079 13.20771395145655
ONEWEB-0374             
1 49300U 21090X   24261.48005995 -.00000068  00000+0 -21870-3 0  9999
2 49300  87.8949  56.5182 0001561  94.5951 265.5357 13.14502120143781
ONEWEB-0375             
1 49301U 21090Y   24261.37927576  .00000076  00000+0  15386-3 0  9998
2 49301  87.9237  41.3022 0001427  73.2783 286.8507 13.20772272146337
ONEWEB-0377             
1 49303U 21090AA  24261.36521060  .00000065  00000+0  12893-3 0  9995
2 49303  87.9239  41.2970 0001931  91.0474 269.0880 13.20770387146328
ONEWEB-0378             
1 49304U 21090AB  24261.46305572  .00000047  00000+0  83807-4 0  9999
2 49304  87.9237  41.2816 0001632  92.7962 267.3359 13.20775137145604
